STARLINK-5627           
1 55364U 23013AK  23355.45435431  .00019562  00000+0  14584-2 0  9995
2 55364  43.0041  17.1285 0001163 259.5206 100.5505 15.02555834 50415
STARLINK-5639           
1 55365U 23013AL  23355.41314594  .00003113  00000+0  24535-3 0  9991
2 55365  43.0047  30.6692 0001331 271.1683  88.9007 15.02549088 50252
STARLINK-5654           
1 55366U 23013AM  23354.35223493 -.00000156  00000+0  34968-5 0  9999
2 55366  43.0052  10.4657 0001162 256.7792 103.2921 15.02543259 49964
STARLINK-5635           
1 55367U 23013AN  23355.42982201  .00017919  00000+0  13660-2 0  9995
2 55367  43.0048   4.7846 0001221 267.2141  92.8562 15.01755670 50559
STARLINK-5625           
1 55368U 23013AP  23355.40699964  .00004270  00000+0  33090-3 0  9991
2 55368  43.0048   4.6198 0001129 269.2474  90.8239 15.02548567 50552
STARLINK-5644           
1 55369U 23013AQ  23355.41202880  .00002851  00000+0  22597-3 0  9993
2 55369  43.0048  30.6585 0001153 252.8334 107.2382 15.02542575 50254
STARLINK-5027           
1 55370U 23013AR  23354.55226364  .00007516  00000+0  57073-3 0  9992
2 55370  43.0046  35.3917 0001190 269.6311  90.4395 15.02544490 50128
STARLINK-5590           
1 55371U 23013AS  23355.46852153  .00014863  00000+0  11123-2 0  9993
2 55371  43.0047  30.2255 0001135 267.7145  92.3568 15.02560917 50262
STARLINK-5568           
1 55372U 23013AT  23355.40870345  .00014745  00000+0  11036-2 0  9993
2 55372  43.0043  30.6349 0001240 271.8555  88.2145 15.02561281 50254
STARLINK-5581           
1 55373U 23013AU  23355.09740274  .00002694  00000+0  21441-3 0  9998
2 55373  43.0040  32.5923 0001261 256.1852 103.8851 15.02536392 50208
STARLINK-5578           
1 55374U 23013AV  23354.60764486  .00018766  00000+0  14001-2 0  9996
2 55374  43.0042  34.9444 0001112 258.4833 101.5884 15.02547714 50137
STARLINK-5588           
1 55375U 23013AW  23355.46187978  .00039818  00000+0  29430-2 0  9990
2 55375  43.0043  30.1764 0001421 296.3346  63.7351 15.02574003 50268
STARLINK-5586           
1 55376U 23013AX  23354.49518266  .00005291  00000+0  41513-3 0  9996
2 55376  43.0050   9.8121 0001195 254.9236 105.1474 15.01726411 49988
STARLINK-5567           
1 55377U 23013AY  23355.44854535  .00013134  00000+0  98495-3 0  9991
2 55377  43.0045  30.0727 0001168 262.7317  97.3392 15.02557289 50268
STARLINK-5572           
1 55378U 23013AZ  23355.39870701  .00002544  00000+0  20331-3 0  9996
2 55378  43.0048  30.5570 0001116 252.1835 107.8886 15.02544966 50256
STARLINK-5569           
1 55379U 23013BA  23354.59099704  .00016253  00000+0  12154-2 0  9999
2 55379  43.0043  34.8197 0001029 270.4333  89.6392 15.02537973 49700
STARLINK-5571           
1 55380U 23013BB  23355.46570958  .00017022  00000+0  12711-2 0  9997
2 55380  43.0050   4.1993 0001093 260.3790  99.6929 15.02566563 50560
STARLINK-5575           
1 55381U 23013BC  23355.45185572  .00018888  00000+0  14075-2 0  9997
2 55381  43.0045  30.0978 0001525 262.0664  98.0006 15.02590974 50264
STARLINK-5576           
1 55382U 23013BD  23355.45853147  .00014142  00000+0  10591-2 0  9996
2 55382  43.0048  30.1504 0001175 271.6259  88.4449 15.02561494 50260
STARLINK-5531           
1 55383U 23013BE  23355.46237772  .00010348  00000+0  77946-3 0  9990
2 55383  43.0045   4.1707 0001136 259.0376 101.0339 15.02559502 50561
STARLINK-5537           
1 55384U 23013BF  23354.59210725  .00013574  00000+0  10179-2 0  9991
2 55384  43.0043  34.8293 0001184 258.6619 101.4091 15.02538046 49701
STARLINK-5556           
1 55385U 23013BG  23354.57767775  .00008835  00000+0  66827-3 0  9998
2 55385  43.0043  34.7177 0001205 265.9502  94.1203 15.02536584 49706
STARLINK-5555           
1 55386U 23013BH  23354.58100601  .00011401  00000+0  85758-3 0  9996
2 55386  43.0042  34.7444 0001183 260.4088  99.6621 15.02540337 49702
STARLINK-5077           
1 55391U 23014A   23355.25546913  .00000299  00000+0  33442-4 0  9995
2 55391  70.0008 304.3797 0002286 256.7404 103.3500 14.97537370 49897
STARLINK-5085           
1 55392U 23014B   23354.91069615  .00001840  00000+0  16201-3 0  9993
2 55392  70.0004 286.1132 0002473 261.1803  98.9076 14.98324498 51251
STARLINK-4786           
1 55393U 23014C   23355.11954585  .00001012  00000+0  92556-4 0  9995
2 55393  70.0003 305.5248 0002673 251.4658 108.6210 14.98330042 49851
STARLINK-5230           
1 55394U 23014D   23355.18213774 -.00000913  00000+0 -68745-4 0  9995
2 55394  69.9992 305.3299 0003144 255.6819 104.3991 14.98317702 49867
STARLINK-5274           
1 55395U 23014E   23355.12772688  .00002089  00000+0  18283-3 0  9999
2 55395  70.0010 305.5300 0002341 240.6495 119.4430 14.98328857 49856
STARLINK-5283           
1 55396U 23014F   23355.12355326  .00001325  00000+0  11881-3 0  9995
2 55396  69.9999 305.5258 0002655 257.3131 102.7732 14.98330592 49851
STARLINK-5224           
1 55397U 23014G   23355.15255783  .00001355  00000+0  12132-3 0  9998
2 55397  70.0012 285.7434 0002472 237.6585 122.4335 14.98324546 50343
