OBJECT_NAME,OBJECT_ID,EPOCH,MEAN_MOTION,ECCENTRICITY,INCLINATION,RA_OF_ASC_NODE,ARG_OF_PERICENTER,MEAN_ANOMALY,EPHEMERIS_TYPE,CLASSIFICATION_TYPE,NORAD_CAT_ID,ELEMENT_SET_NO,REV_AT_EPOCH,BSTAR,MEAN_MOTION_DOT,MEAN_MOTION_DDOT
STARLINK-5627,2023-013AK,2023-12-21T10:54:16.212384,15.02555834,0.0001163,43.0041,17.1285,259.5206,100.5505,0,U,55364,999,5041,1.46E-03,1.96E-04,0
STARLINK-5639,2023-013AL,2023-12-21T09:54:55.809216,15.02549088,0.0001331,43.0047,30.6692,271.1683,88.9007,0,U,55365,999,5025,2.45E-04,3.11E-05,0
STARLINK-5654,2023-013AM,2023-12-20T08:27:13.097952,15.02543259,0.0001162,43.0052,10.4657,256.7792,103.2921,0,U,55366,999,4996,3.50E-06,-1.56E-06,0
STARLINK-5635,2023-013AN,2023-12-21T10:18:56.621664,15.0175567,0.0001221,43.0048,4.7846,267.2141,92.8562,0,U,55367,999,5055,1.37E-03,1.79E-04,0
STARLINK-5625,2023-013AP,2023-12-21T09:46:04.768896,15.02548567,0.0001129,43.0048,4.6198,269.2474,90.8239,0,U,55368,999,5055,3.31E-04,4.27E-05,0
STARLINK-5644,2023-013AQ,2023-12-21T09:53:19.288320,15.02542575,0.0001153,43.0048,30.6585,252.8334,107.2382,0,U,55369,999,5025,2.26E-04,2.85E-05,0
STARLINK-5027,2023-013AR,2023-12-20T13:15:15.578496,15.0254449,0.000119,43.0046,35.3917,269.6311,90.4395,0,U,55370,999,5012,5.71E-04,7.52E-05,0
STARLINK-5590,2023-013AS,2023-12-21T11:14:40.260192,15.02560917,0.0001135,43.0047,30.2255,267.7145,92.3568,0,U,55371,999,5026,1.11E-03,1.49E-04,0
STARLINK-5568,2023-013AT,2023-12-21T09:48:31.978080,15.02561281,0.000124,43.0043,30.6349,271.8555,88.2145,0,U,55372,999,5025,1.10E-03,1.47E-04,0
STARLINK-5581,2023-013AU,2023-12-21T02:20:15.596736,15.02536392,0.0001261,43.004,32.5923,256.1852,103.8851,0,U,55373,999,5020,2.14E-04,2.69E-05,0
STARLINK-5578,2023-013AV,2023-12-20T14:35:00.515904,15.02547714,0.0001112,43.0042,34.9444,258.4833,101.5884,0,U,55374,999,5013,1.40E-03,1.88E-04,0
STARLINK-5588,2023-013AW,2023-12-21T11:05:06.412992,15.02574003,0.0001421,43.0043,30.1764,296.3346,63.7351,0,U,55375,999,5026,2.94E-03,3.98E-04,0
STARLINK-5586,2023-013AX,2023-12-20T11:53:03.781824,15.01726411,0.0001195,43.005,9.8121,254.9236,105.1474,0,U,55376,999,4998,4.15E-04,5.29E-05,0
STARLINK-5567,2023-013AY,2023-12-21T10:45:54.318240,15.02557289,0.0001168,43.0045,30.0727,262.7317,97.3392,0,U,55377,999,5026,9.85E-04,1.31E-04,0
STARLINK-5572,2023-013AZ,2023-12-21T09:34:08.285664,15.02544966,0.0001116,43.0048,30.557,252.1835,107.8886,0,U,55378,999,5025,2.03E-04,2.54E-05,0
STARLINK-5569,2023-013BA,2023-12-20T14:11:02.144256,15.02537973,0.0001029,43.0043,34.8197,270.4333,89.6392,0,U,55379,999,4970,1.22E-03,1.63E-04,0
STARLINK-5571,2023-013BB,2023-12-21T11:10:37.307712,15.02566563,0.0001093,43.005,4.1993,260.379,99.6929,0,U,55380,999,5056,1.27E-03,1.70E-04,0
STARLINK-5575,2023-013BC,2023-12-21T10:50:40.334208,15.02590974,0.0001525,43.0045,30.0978,262.0664,98.0006,0,U,55381,999,5026,1.41E-03,1.89E-04,0
STARLINK-5576,2023-013BD,2023-12-21T11:00:17.119008,15.02561494,0.0001175,43.0048,30.1504,271.6259,88.4449,0,U,55382,999,5026,1.06E-03,1.41E-04,0
STARLINK-5531,2023-013BE,2023-12-21T11:05:49.435008,15.02559502,0.0001136,43.0045,4.1707,259.0376,101.0339,0,U,55383,999,5056,7.79E-04,1.03E-04,0
STARLINK-5537,2023-013BF,2023-12-20T14:12:38.066400,15.02538046,0.0001184,43.0043,34.8293,258.6619,101.4091,0,U,55384,999,4970,1.02E-03,1.36E-04,0
STARLINK-5556,2023-013BG,2023-12-20T13:51:51.357600,15.02536584,0.0001205,43.0043,34.7177,265.9502,94.1203,0,U,55385,999,4970,6.68E-04,8.84E-05,0
STARLINK-5555,2023-013BH,2023-12-20T13:56:38.919264,15.02540337,0.0001183,43.0042,34.7444,260.4088,99.6621,0,U,55386,999,4970,8.58E-04,1.14E-04,0
STARLINK-5077,2023-014A,2023-12-21T06:07:52.532832,14.9753737,0.0002286,70.0008,304.3797,256.7404,103.35,0,U,55391,999,4989,3.34E-05,2.99E-06,0
STARLINK-5085,2023-014B,2023-12-20T21:51:24.147360,14.98324498,0.0002473,70.0004,286.1132,261.1803,98.9076,0,U,55392,999,5125,1.62E-04,1.84E-05,0
STARLINK-4786,2023-014C,2023-12-21T02:52:08.761440,14.98330042,0.0002673,70.0003,305.5248,251.4658,108.621,0,U,55393,999,4985,9.26E-05,1.01E-05,0
STARLINK-5230,2023-014D,2023-12-21T04:22:16.700736,14.98317702,0.0003144,69.9992,305.3299,255.6819,104.3991,0,U,55394,999,4986,-6.87E-05,-9.13E-06,0
STARLINK-5274,2023-014E,2023-12-21T03:03:55.602432,14.98328857,0.0002341,70.001,305.53,240.6495,119.443,0,U,55395,999,4985,1.83E-04,2.09E-05,0
STARLINK-5283,2023-014F,2023-12-21T02:57:55.001664,14.98330592,0.0002655,69.9999,305.5258,257.3131,102.7732,0,U,55396,999,4985,1.19E-04,1.33E-05,0
STARLINK-5224,2023-014G,2023-12-21T03:39:40.996512,14.98324546,0.0002472,70.0012,285.7434,237.6585,122.4335,0,U,55397,999,5034,1.21E-04,1.36E-05,0
